COMMENT,ORIGINATOR,NORAD_CAT_ID,OBJECT_NAME,OBJECT_TYPE,CLASSIFICATION_TYPE,INTLDES,EPOCH,EPOCH_MICROSECONDS,MEAN_MOTION,ECCENTRICITY,INCLINATION,RA_OF_ASC_NODE,ARG_OF_PERICENTER,MEAN_ANOMALY,EPHEMERIS_TYPE,ELEMENT_SET_NO,REV_AT_EPOCH,BSTAR,MEAN_MOTION_DOT,MEAN_MOTION_DDOT,FILE,TLE_LINE0,TLE_LINE1,TLE_LINE2,OBJECT_ID,OBJECT_NUMBER,SEMIMAJOR_AXIS,PERIOD,APOGEE,PERIGEE,DECAYED
"GENERATED VIA SPACETRACK.ORG API","18 SPCS","12345","COSMOS 1174 DEB","DEBRIS","U","80030T","1985-11-20 20:10:28","453439","14.07319713","0.0622002","66.057","113.4494","196.4311","161.5778","0","999","73341","0.00049016","0.00005225","0","34419","0 COSMOS 1174 DEB","1 12345U 80030  T 85324.84060710  .00005225 +00000-0 +49016-3 0  9991","2 12345 066.0570 113.4494 0622002 196.4311 161.5778 14.07319713733413","1980-030T","12345","7246.700","102.322","1319.311","417.819","1"
"GENERATED VIA SPACETRACK.ORG API","18 SPCS","12345","COSMOS 1174 DEB","DEBRIS","U","80030T","1985-11-18 13:35:43","330271","14.07294078","0.0621925","66.0585","119.3777","197.7374","160.1095","0","999","73309","0.00044151","0.00004689","0","34419","0 COSMOS 1174 DEB","1 12345U 80030  T 85322.56647373  .00004689 +00000-0 +44151-3 0  9992","2 12345 066.0585 119.3777 0621925 197.7374 160.1095 14.07294078733091","1980-030T","12345","7246.788","102.324","1319.349","417.957","1"
"GENERATED VIA SPACETRACK.ORG API","18 SPCS","12345","COSMOS 1174 DEB","DEBRIS","U","80030T","1985-11-15 12:15:11","148480","14.07260877","0.0622409","66.0578","127.3418","199.4482","158.188","0","999","73266","0.0004484","0.00004773","0","34419","0 COSMOS 1174 DEB","1 12345U 80030  T 85319.51054570  .00004773 +00000-0 +44840-3 0  9993","2 12345 066.0578 127.3418 0622409 199.4482 158.1880 14.07260877732662","1980-030T","12345","7246.902","102.326","1319.820","417.713","1"
"GENERATED VIA SPACETRACK.ORG API","18 SPCS","12345","COSMOS 1174 DEB","DEBRIS","U","80030T","1985-11-13 21:01:21","947808","14.07242685","0.0622328","66.0577","131.6025","200.3822","157.1402","0","999","73243","0.00040261","0.00004271","0","34419","0 COSMOS 1174 DEB","1 12345U 80030  T 85317.87594847  .00004271 +00000-0 +40261-3 0  9992","2 12345 066.0577 131.6025 0622328 200.3822 157.1402 14.07242685732434","1980-030T","12345","7246.964","102.328","1319.828","417.830","1"
"GENERATED VIA SPACETRACK.ORG API","18 SPCS","12345","COSMOS 1174 DEB","DEBRIS","U","80030T","1985-11-12 16:01:33","976704","14.07231899","0.0622924","66.0574","134.7503","201.0259","156.418","0","999","73226","0.00040503","0.00004311","0","34419","0 COSMOS 1174 DEB","1 12345U 80030  T 85316.66775436  .00004311 +00000-0 +40503-3 0  9997","2 12345 066.0574 134.7503 0622924 201.0259 156.4180 14.07231899732261","1980-030T","12345","7247.001","102.329","1320.299","417.433","1"
"GENERATED VIA SPACETRACK.ORG API","18 SPCS","12345","COSMOS 1174 DEB","DEBRIS","U","80030T","1985-11-08 23:19:44","477183","14.0719881","0.062332","66.057","144.3764","203.108","154.0909","0","999","73174","0.00028616","0.00003019","0","34419","0 COSMOS 1174 DEB","1 12345U 80030  T 85312.97204256  .00003019 +00000-0 +28616-3 0  9999","2 12345 066.0570 144.3764 0623320 203.1080 154.0909 14.07198810731749","1980-030T","12345","7247.115","102.331","1320.707","417.253","1"
"GENERATED VIA SPACETRACK.ORG API","18 SPCS","12345","COSMOS 1174 DEB","DEBRIS","U","80030T","1985-11-07 14:55:11","922527","14.07187311","0.0623507","66.057","147.8916","203.878","153.2214","0","999","73155","0.00020354","0.00002114","0","34419","0 COSMOS 1174 DEB","1 12345U 80030  T 85311.62166577  .00002114 +00000-0 +20354-3 0  9999","2 12345 066.0570 147.8916 0623507 203.8780 153.2214 14.07187311731550","1980-030T","12345","7247.154","102.332","1320.885","417.154","1"
"GENERATED VIA SPACETRACK.ORG API","18 SPCS","12345","COSMOS 1174 DEB","DEBRIS","U","80030T","1985-11-04 23:48:25","587648","14.07178392","0.06232","66.0606","154.7458","205.4283","151.4859","0","999","73118","0.00021314","0.00002216","0","34419","0 COSMOS 1174 DEB","1 12345U 80030  T 85308.99196282  .00002216 +00000-0 +21314-3 0  9991","2 12345 066.0606 154.7458 0623200 205.4283 151.4859 14.07178392731187","1980-030T","12345","7247.185","102.332","1320.695","417.405","1"
"GENERATED VIA SPACETRACK.ORG API","18 SPCS","12345","COSMOS 1174 DEB","DEBRIS","U","80030T","1985-11-01 00:17:03","127199","14.07160706","0.0623712","66.0609","165.1132","207.6493","149.0128","0","999","73062","0.00022535","0.00002357","0","34419","0 COSMOS 1174 DEB","1 12345U 80030  T 85305.01184175  .00002357 +00000-0 +22535-3 0  9991","2 12345 066.0609 165.1132 0623712 207.6493 149.0128 14.07160706730620","1980-030T","12345","7247.246","102.334","1321.130","417.091","1"
"GENERATED VIA SPACETRACK.ORG API","18 SPCS","12345","COSMOS 1174 DEB","DEBRIS","U","80030T","1985-10-29 00:38:28","334111","14.07146402","0.0624729","66.063","172.889","209.3614","147.1131","0","999","73020","0.00022256","0.00002342","0","34419","0 COSMOS 1174 DEB","1 12345U 80030  T 85302.02671683  .00002342 +00000-0 +22256-3 0  9998","2 12345 066.0630 172.8890 0624729 209.3614 147.1131 14.07146402730207","1980-030T","12345","7247.295","102.335","1321.919","416.400","1"
"GENERATED VIA SPACETRACK.ORG API","18 SPCS","12345","COSMOS 1174 DEB","DEBRIS","U","80030T","1985-10-27 16:13:51","602879","14.07140522","0.0624401","66.063","176.407","210.0809","146.2976","0","999","73001","0.00019176","0.00001995","0","34419","0 COSMOS 1174 DEB","1 12345U 80030  T 85300.67629170  .00001995 +00000-0 +19176-3 0  9991","2 12345 066.0630 176.4070 0624401 210.0809 146.2976 14.07140522730012","1980-030T","12345","7247.315","102.335","1321.703","416.657","1"
"GENERATED VIA SPACETRACK.ORG API","18 SPCS","12345","COSMOS 1174 DEB","DEBRIS","U","80030T","1985-10-25 02:49:18","995808","14.07126658","0.062418","66.0633","183.0719","211.5368","144.687","0","999","72965","0.00014171","0.00001442","0","34419","0 COSMOS 1174 DEB","1 12345U 80030  T 85298.11758097  .00001442 +00000-0 +14171-3 0  9994","2 12345 066.0633 183.0719 0624180 211.5368 144.6870 14.07126658729656","1980-030T","12345","7247.363","102.336","1321.594","416.862","1"
"GENERATED VIA SPACETRACK.ORG API","18 SPCS","12345","COSMOS 1174 DEB","DEBRIS","U","80030T","1985-10-24 02:56:25","757375","14.0712181","0.0624292","66.063","185.6636","212.1008","144.0642","0","999","72951","0.00011962","0.000012","0","34419","0 COSMOS 1174 DEB","1 12345U 80030  T 85297.12252034  .00001200 +00000-0 +11962-3 0  9991","2 12345 066.0630 185.6636 0624292 212.1008 144.0642 14.07121810729512","1980-030T","12345","7247.379","102.337","1321.692","416.796","1"
"GENERATED VIA SPACETRACK.ORG API","18 SPCS","12345","COSMOS 1174 DEB","DEBRIS","U","80030T","1985-10-17 03:46:07","805856","14.07100483","0.0625144","66.0623","203.8071","216.0216","139.722","0","999","72853","0.00017026","0.00001766","0","34419","0 COSMOS 1174 DEB","1 12345U 80030  T 85290.15703479  .00001766 +00000-0 +17026-3 0  9995","2 12345 066.0623 203.8071 0625144 216.0216 139.7220 14.07100483728538","1980-030T","12345","7247.452","102.338","1322.388","416.247","1"
"GENERATED VIA SPACETRACK.ORG API","18 SPCS","12345","COSMOS 1174 DEB","DEBRIS","U","80030T","1985-10-15 04:00:17","809920","14.07092068","0.062554","66.0619","208.992","217.1408","138.4859","0","999","72825","0.00015798","0.00001634","0","34419","0 COSMOS 1174 DEB","1 12345U 80030  T 85288.16687280  .00001634 +00000-0 +15798-3 0  9992","2 12345 066.0619 208.9920 0625540 217.1408 138.4859 14.07092068728259","1980-030T","12345","7247.481","102.339","1322.705","415.987","1"
"GENERATED VIA SPACETRACK.ORG API","18 SPCS","12345","COSMOS 1174 DEB","DEBRIS","U","80030T","1985-10-13 04:14:26","947391","14.07081728","0.0625646","66.0606","214.1758","218.2594","137.2511","0","999","72797","0.00013083","0.00001334","0","34419","0 COSMOS 1174 DEB","1 12345U 80030  T 85286.17670078  .00001334 +00000-0 +13083-3 0  9990","2 12345 066.0606 214.1758 0625646 218.2594 137.2511 14.07081728727979","1980-030T","12345","7247.517","102.339","1322.820","415.944","1"
"GENERATED VIA SPACETRACK.ORG API","18 SPCS","12345","COSMOS 1174 DEB","DEBRIS","U","80030T","1985-10-10 01:10:56","44991","14.07075906","0.0625824","66.0615","222.3187","220.0135","135.3277","0","999","72753","0.00015754","0.00001631","0","34419","0 COSMOS 1174 DEB","1 12345U 80030  T 85283.04925978  .00001631 +00000-0 +15754-3 0  9992","2 12345 066.0615 222.3187 0625824 220.0135 135.3277 14.07075906727537","1980-030T","12345","7247.537","102.340","1322.970","415.834","1"
"GENERATED VIA SPACETRACK.ORG API","18 SPCS","12345","COSMOS 1174 DEB","DEBRIS","U","80030T","1985-10-05 23:56:48","465887","14.0706176","0.0626028","66.0602","232.8776","222.3072","132.8111","0","999","72696","0.00013517","0.00001384","0","34419","0 COSMOS 1174 DEB","1 12345U 80030  T 85278.99778317  .00001384 +00000-0 +13517-3 0  9993","2 12345 066.0602 232.8776 0626028 222.3072 132.8111 14.07061760726963","1980-030T","12345","7247.585","102.341","1323.170","415.731","1"
"GENERATED VIA SPACETRACK.ORG API","18 SPCS","12345","COSMOS 1174 DEB","DEBRIS","U","80030T","1985-10-01 07:21:26","360640","14.07048076","0.0626121","66.0597","245.0973","224.9876","129.8858","0","999","72630","0.00012205","0.00001238","0","34419","0 COSMOS 1174 DEB","1 12345U 80030  T 85274.30655510  .00001238 +00000-0 +12205-3 0  9994","2 12345 066.0597 245.0973 0626121 224.9876 129.8858 14.07048076726302","1980-030T","12345","7247.632","102.342","1323.287","415.708","1"
"GENERATED VIA SPACETRACK.ORG API","18 SPCS","12345","COSMOS 1174 DEB","DEBRIS","U","80030T","1985-10-01 00:32:01","364064","14.07046829","0.0626157","66.0597","245.8375","225.1626","129.6997","0","999","72626","0.00011159","0.00001122","0","34419","0 COSMOS 1174 DEB","1 12345U 80030  T 85274.02223801  .00001122 +00000-0 +11159-3 0  9996","2 12345 066.0597 245.8375 0626157 225.1626 129.6997 14.07046829726262","1980-030T","12345","7247.637","102.342","1323.318","415.686","1"
